{
  "type": "FeatureCollection",
  "features": [
    {
      "type": "Feature",
      "properties": {
        "norad_id": 37483,
        "name": "COSMOS 2251 DEB",
        "group": "cosmos-2251-debris",
        "lat": -21.478626567385756,
        "lon": -13.382799595210763,
        "alt_km": 815.9290199607294,
        "timestamp": "2025-12-03T17:47:51.116247+00:00",
        "meta_object_name": "COSMOS 2251 DEB",
        "meta_object_id": "1993-036BLL",
        "meta_epoch": "2025-12-02T19:14:27.105504",
        "meta_mean_motion": 14.43532369,
        "meta_eccentricity": 0.00926542,
        "meta_inclination": 73.9725,
        "meta_ra_of_asc_node": 161.8757,
        "meta_arg_of_pericenter": 10.6514,
        "meta_mean_anomaly": 349.6575,
        "meta_ephemeris_type": 0,
        "meta_classification_type": "U",
        "meta_norad_cat_id": 37483,
        "meta_element_set_no": 999,
        "meta_rev_at_epoch": 65136,
        "meta_bstar": 0.00025341126,
        "meta_mean_motion_dot": 8.75e-06,
        "meta_mean_motion_ddot": 0,
        "tle_line1": "1 37483U 93036BLL 25336.80170261  .00000875  00000+0  25341-3 0  9997",
        "tle_line2": "2 37483  73.9725 161.8757 0092654  10.6514 349.6575 14.43532369651368"
      },
      "geometry": {
        "type": "Point",
        "coordinates": [
          -13.382799595210763,
          -21.478626567385756
        ]
      }
    },
    {
      "type": "Feature",
      "properties": {
        "norad_id": 37484,
        "name": "COSMOS 2251 DEB",
        "group": "cosmos-2251-debris",
        "lat": 29.8411940402521,
        "lon": 35.7459903414109,
        "alt_km": 761.9398087339869,
        "timestamp": "2025-12-03T17:47:51.116258+00:00",
        "meta_object_name": "COSMOS 2251 DEB",
        "meta_object_id": "1993-036BLM",
        "meta_epoch": "2025-12-03T09:20:46.078080",
        "meta_mean_motion": 14.41715463,
        "meta_eccentricity": 0.0040203,
        "meta_inclination": 73.8249,
        "meta_ra_of_asc_node": 225.9911,
        "meta_arg_of_pericenter": 262.1785,
        "meta_mean_anomaly": 219.995,
        "meta_ephemeris_type": 0,
        "meta_classification_type": "U",
        "meta_norad_cat_id": 37484,
        "meta_element_set_no": 999,
        "meta_rev_at_epoch": 65244,
        "meta_bstar": 0.0010112,
        "meta_mean_motion_dot": 3.303e-05,
        "meta_mean_motion_ddot": 0,
        "tle_line1": "1 37484U 93036BLM 25337.38942220  .00003303  00000+0  10112-2 0  9992",
        "tle_line2": "2 37484  73.8249 225.9911 0040203 262.1785 219.9950 14.41715463652442"
      },
      "geometry": {
        "type": "Point",
        "coordinates": [
          35.7459903414109,
          29.8411940402521
        ]
      }
    },
    {
      "type": "Feature",
      "properties": {
        "norad_id": 37486,
        "name": "COSMOS 2251 DEB",
        "group": "cosmos-2251-debris",
        "lat": -62.61739236088084,
        "lon": -14.707504842413835,
        "alt_km": 916.1820407157784,
        "timestamp": "2025-12-03T17:47:51.116269+00:00",
        "meta_object_name": "COSMOS 2251 DEB",
        "meta_object_id": "1993-036BLP",
        "meta_epoch": "2025-12-02T16:54:10.956672",
        "meta_mean_motion": 14.13188429,
        "meta_eccentricity": 0.0228993,
        "meta_inclination": 73.688,
        "meta_ra_of_asc_node": 132.7403,
        "meta_arg_of_pericenter": 2.4987,
        "meta_mean_anomaly": 12.5088,
        "meta_ephemeris_type": 0,
        "meta_classification_type": "U",
        "meta_norad_cat_id": 37486,
        "meta_element_set_no": 999,
        "meta_rev_at_epoch": 63228,
        "meta_bstar": 0.0021348416,
        "meta_mean_motion_dot": 5.104e-05,
        "meta_mean_motion_ddot": 0,
        "tle_line1": "1 37486U 93036BLP 25336.70429348  .00005104  00000+0  21348-2 0  9994",
        "tle_line2": "2 37486  73.6880 132.7403 0228993   2.4987  12.5088 14.13188429632281"
      },
      "geometry": {
        "type": "Point",
        "coordinates": [
          -14.707504842413835,
          -62.61739236088084
        ]
      }
    },
    {
      "type": "Feature",
      "properties": {
        "norad_id": 37487,
        "name": "COSMOS 2251 DEB",
        "group": "cosmos-2251-debris",
        "lat": -38.281699276377836,
        "lon": -163.19876121738,
        "alt_km": 634.0832905440993,
        "timestamp": "2025-12-03T17:47:51.116280+00:00",
        "meta_object_name": "COSMOS 2251 DEB",
        "meta_object_id": "1993-036BLQ",
        "meta_epoch": "2025-12-03T01:45:33.375744",
        "meta_mean_motion": 14.80341915,
        "meta_eccentricity": 0.00252239,
        "meta_inclination": 73.9032,
        "meta_ra_of_asc_node": 211.3022,
        "meta_arg_of_pericenter": 51.1767,
        "meta_mean_anomaly": 309.1655,
        "meta_ephemeris_type": 0,
        "meta_classification_type": "U",
        "meta_norad_cat_id": 37487,
        "meta_element_set_no": 999,
        "meta_rev_at_epoch": 81102,
        "meta_bstar": 0.0039664118,
        "meta_mean_motion_dot": 0.00030521,
        "meta_mean_motion_ddot": 0,
        "tle_line1": "1 37487U 93036BLQ 25337.07330296  .00030521  00000+0  39664-2 0  9990",
        "tle_line2": "2 37487  73.9032 211.3022 0025223  51.1767 309.1655 14.80341915811024"
      },
      "geometry": {
        "type": "Point",
        "coordinates": [
          -163.19876121738,
          -38.281699276377836
        ]
      }
    },
    {
      "type": "Feature",
      "properties": {
        "norad_id": 37491,
        "name": "COSMOS 2251 DEB",
        "group": "cosmos-2251-debris",
        "lat": -65.27928048082472,
        "lon": 148.01513453617576,
        "alt_km": 788.8933237566062,
        "timestamp": "2025-12-03T17:47:51.116290+00:00",
        "meta_object_name": "COSMOS 2251 DEB",
        "meta_object_id": "1993-036BLU",
        "meta_epoch": "2025-12-01T13:55:34.044096",
        "meta_mean_motion": 13.75223452,
        "meta_eccentricity": 0.03181876,
        "meta_inclination": 73.9059,
        "meta_ra_of_asc_node": 292.8015,
        "meta_arg_of_pericenter": 287.8478,
        "meta_mean_anomaly": 68.8175,
        "meta_ephemeris_type": 0,
        "meta_classification_type": "U",
        "meta_norad_cat_id": 37491,
        "meta_element_set_no": 999,
        "meta_rev_at_epoch": 55593,
        "meta_bstar": 0.0015718852,
        "meta_mean_motion_dot": 2.153e-05,
        "meta_mean_motion_ddot": 0,
        "tle_line1": "1 37491U 93036BLU 25335.58025514  .00002153  00000+0  15719-2 0  9998",
        "tle_line2": "2 37491  73.9059 292.8015 0318187 287.8478  68.8175 13.75223452555934"
      },
      "geometry": {
        "type": "Point",
        "coordinates": [
          148.01513453617576,
          -65.27928048082472
        ]
      }
    },
    {
      "type": "Feature",
      "properties": {
        "norad_id": 37498,
        "name": "COSMOS 2251 DEB",
        "group": "cosmos-2251-debris",
        "lat": -63.39552690274319,
        "lon": 55.764022409020505,
        "alt_km": 707.9196651114644,
        "timestamp": "2025-12-03T17:47:51.116302+00:00",
        "meta_object_name": "COSMOS 2251 DEB",
        "meta_object_id": "1993-036BMB",
        "meta_epoch": "2025-12-02T07:38:53.705760",
        "meta_mean_motion": 14.54689112,
        "meta_eccentricity": 0.00134342,
        "meta_inclination": 74.038,
        "meta_ra_of_asc_node": 203.6034,
        "meta_arg_of_pericenter": 264.7495,
        "meta_mean_anomaly": 95.2135,
        "meta_ephemeris_type": 0,
        "meta_classification_type": "U",
        "meta_norad_cat_id": 37498,
        "meta_element_set_no": 999,
        "meta_rev_at_epoch": 65203,
        "meta_bstar": 0.00080152077,
        "meta_mean_motion_dot": 3.406e-05,
        "meta_mean_motion_ddot": 0,
        "tle_line1": "1 37498U 93036BMB 25336.31867715  .00003406  00000+0  80152-3 0  9990",
        "tle_line2": "2 37498  74.0380 203.6034 0013434 264.7495  95.2135 14.54689112652037"
      },
      "geometry": {
        "type": "Point",
        "coordinates": [
          55.764022409020505,
          -63.39552690274319
        ]
      }
    },
    {
      "type": "Feature",
      "properties": {
        "norad_id": 37499,
        "name": "COSMOS 2251 DEB",
        "group": "cosmos-2251-debris",
        "lat": 38.842981280340396,
        "lon": -8.01007471311903,
        "alt_km": 755.7672265739202,
        "timestamp": "2025-12-03T17:47:51.116312+00:00",
        "meta_object_name": "COSMOS 2251 DEB",
        "meta_object_id": "1993-036BMC",
        "meta_epoch": "2025-12-02T18:10:26.857920",
        "meta_mean_motion": 14.34326576,
        "meta_eccentricity": 0.00266176,
        "meta_inclination": 74.0374,
        "meta_ra_of_asc_node": 340.4656,
        "meta_arg_of_pericenter": 59.6085,
        "meta_mean_anomaly": 300.7692,
        "meta_ephemeris_type": 0,
        "meta_classification_type": "U",
        "meta_norad_cat_id": 37499,
        "meta_element_set_no": 999,
        "meta_rev_at_epoch": 85006,
        "meta_bstar": 0.00020272386,
        "meta_mean_motion_dot": 5.46e-06,
        "meta_mean_motion_ddot": 0,
        "tle_line1": "1 37499U 93036BMC 25336.75725530  .00000546  00000+0  20272-3 0  9996",
        "tle_line2": "2 37499  74.0374 340.4656 0026617  59.6085 300.7692 14.34326576850069"
      },
      "geometry": {
        "type": "Point",
        "coordinates": [
          -8.01007471311903,
          38.842981280340396
        ]
      }
    }
  ]
}